STARLINK-2063           
1 48553U 21041A   26068.45906604  .00000059  00000+0  14129-4 0  9993
2 48553  53.1586 127.8795 0001102 102.8101 257.3023 15.30192431265241
BANDWAGON-2 OBJECT D    
1 62380U 24247D   26068.52261193  .00011259  00000+0  40119-3 0  9994
2 62380  44.9954 115.6710 0003488 351.1453   8.9368 15.29076102 67732
